INTELSAT 21 (IS-21)     
1 38749U 12045A   26165.19003344 -.00000276  00000+0  00000+0 0  9991
2 38749   0.0164 320.5840 0001261 138.6000 173.7258  1.00271183 50498
INTELSAT 23 (IS-23)     
1 38867U 12057A   26165.19003344 -.00000276  00000+0  00000+0 0  9995
2 38867   0.0146 345.6246 0000372  89.3722 202.9030  1.00274700 49929
FM-6                    
1 39360U 13058A   26164.66759005  .00000000  00000+0  00000+0 0  9993
2 39360   0.0302  40.0804 0001556 125.3602 220.5258  1.00266318 46034
INTELSAT 30 (IS-30)     
1 40271U 14062A   26164.95694016 -.00000141  00000+0  00000+0 0  9991
2 40271   0.0271  49.1684 0001294 328.5052 134.0377  1.00271302  6769
DIRECTV 14              
1 40333U 14078B   26165.13933841 -.00000116  00000+0  00000+0 0  9992
2 40333   0.0112  14.8804 0000355 254.9405 303.5424  1.00269987 42016
DIRECTV 15              
1 40663U 15026A   26164.95546683 -.00000093  00000+0  00000+0 0  9999
2 40663   0.0157  25.4064 0000230 246.7780 231.1742  1.00270807 40430
SKY MEXICO-1            
1 40664U 15026B   26165.17402237 -.00000226  00000+0  00000+0 0  9999
2 40664   0.0169 341.8207 0001941 121.7928 142.7169  1.00270894 40429
INTELSAT 34 (IS-34)     
1 40874U 15039A   26165.19003344 -.00000277  00000+0  00000+0 0  9990
2 40874   0.0101 346.0378 0000942   2.5626 286.8281  1.00274829 39600
INTELSAT 31 (IS-31)     
1 41581U 16035A   26165.17081569 -.00000142  00000+0  00000+0 0  9997
2 41581   0.0179 271.7333 0001205 326.1691 351.0186  1.00268287 36658
INTELSAT 36 (IS-36)     
1 41747U 16053A   26165.20622325 -.00000015  00000+0  00000+0 0  9995
2 41747   0.0105 359.4994 0002124 329.3715  76.3746  1.00270032 35920
INTELSAT 32E (IS-32E)   
1 41945U 17007B   26165.18112661 -.00000260  00000+0  00000+0 0  9991
2 41945   0.0050  41.9839 0000745 262.8981 339.6327  1.00269960 34199
INTELSAT 35E (IS-35E)   
1 42818U 17041A   26165.18285994  .00000000  00000+0  00000+0 0  9990
2 42818   0.0255   6.1220 0001549  74.2291 213.4753  1.00268394 32780
INTELSAT 37E (IS-37E)   
1 42950U 17059A   26165.11484977 -.00000131  00000+0  00000+0 0  9997
2 42950   0.0200  61.2578 0002341  39.6516 184.8699  1.00272613 32038
AZERSPACE 2 (IS-38)     
1 43632U 18074A   26164.88888679  .00000146  00000+0  00000+0 0  9998
2 43632   0.0111   7.5192 0001265  90.2404 169.5525  1.00271406 28419
HORIZONS-3E             
1 43633U 18074B   26164.79535486 -.00000020  00000+0  00000+0 0  9996
2 43633   0.0185 161.8508 0000895 113.8020  81.7793  1.00272721 28301
AT&T T-16               
1 44333U 19034A   26164.88448873 -.00000105  00000+0  00000+0 0  9998
2 44333   0.0190  56.6301 0000887 237.6114 185.5149  1.00269989 25607
INTELSAT 39 (IS-39)     
1 44476U 19049B   26164.48900116  .00000045  00000+0  00000+0 0  9993
2 44476   0.0017 349.3933 0000876 319.9486 190.4512  1.00270508 25091
GALAXY 30 (G-30)        
1 46114U 20056C   26165.15044598  .00000046  00000+0  00000+0 0  9993
2 46114   0.0179   5.4372 0002064  83.1864 102.9907  1.00270364 21260
GALAXY 33 (G-33)        
1 54026U 22128A   26165.26406897  .00000087  00000+0  00000+0 0  9997
2 54026   0.0124 340.8013 0001597 105.2694 138.5657  1.00270975 13712
GALAXY 34 (G-34)        
1 54027U 22128B   26164.73636187  .00000069  00000+0  00000+0 0  9996
2 54027   0.0115  29.5169 0001530  67.3543 301.2703  1.00275311 13871
GALAXY 31 (G-31)        
1 54243U 22153A   26165.15044598  .00000000  00000+0  00000+0 0  9995
2 54243   0.0195  13.1462 0000972  62.8336 119.6246  1.00270193  7108
GALAXY 32 (G-32)        
1 54244U 22153B   26164.60112796 -.00000163  00000+0  00000+0 0  9992
2 54244   0.0146  26.6441 0001981   6.1350 354.5447  1.00271032 13102
GALAXY 35 (G-35)        
1 54741U 22170A   26165.17124903  .00000000  00000+0  00000+0 0  9998
2 54741   0.0195 359.4874 0001770  86.5785 144.9519  1.00269341 12868
GALAXY 36 (G-36)        
1 54742U 22170B   26165.17202904 -.00000176  00000+0  00000+0 0  9992
2 54742   0.0420 125.7235 0002475 317.7191 151.9705  1.00271107 12743
GALAXY 37 (G-37)        
1 57493U 23112A   26165.15044598  .00000057  00000+0  00000+0 0  9993
2 57493   0.0187  51.6477 0001720  28.4086 109.5568  1.00271004 10510
